[
  {
    "id": "07530U",
    "name": "OSCAR 7 (AO-7)",
    "tle1": "1 07530U 74089B   25075.97204888 -.00000052  00000+0 -34467-4 0  9994",
    "tle2": "2 07530 101.9954  79.3305 0011877 284.0141 102.5760 12.53687136303220",
    "category": "amateur"
  },
  {
    "id": "14129U",
    "name": "PHASE 3B (AO-10)",
    "tle1": "1 14129U 83058B   25073.92018704  .00000020  00000+0  00000+0 0  9999",
    "tle2": "2 14129  27.0142 296.3641 6048443 349.0057   2.2900  2.05871245286039",
    "category": "amateur"
  },
  {
    "id": "14781U",
    "name": "UOSAT 2 (UO-11)",
    "tle1": "1 14781U 84021B   25075.87302649  .00004047  00000+0  43663-3 0  9993",
    "tle2": "2 14781  97.7458  43.9885 0006096 254.0532 106.0013 14.88918031189037",
    "category": "amateur"
  },
  {
    "id": "20442U",
    "name": "LUSAT (LO-19)",
    "tle1": "1 20442U 90005G   25075.95537087  .00000493  00000+0  19366-3 0  9992",
    "tle2": "2 20442  98.9004  79.7226 0012716 105.3489 254.9101 14.33890308836866",
    "category": "amateur"
  },
  {
    "id": "22825U",
    "name": "EYESAT A (AO-27)",
    "tle1": "1 22825U 93061C   25075.88012789  .00000348  00000+0  15001-3 0  9994",
    "tle2": "2 22825  98.7473 136.9760 0008413   9.0060 351.1271 14.30749982641606",
    "category": "amateur"
  },
  {
    "id": "22826U",
    "name": "ITAMSAT (IO-26)",
    "tle1": "1 22826U 93061D   25076.13298125  .00000391  00000+0  16518-3 0  9996",
    "tle2": "2 22826  98.7420 137.1074 0008602 352.1022   8.0024 14.31158106642181",
    "category": "amateur"
  },
  {
    "id": "23439U",
    "name": "RADIO ROSTO (RS-15)",
    "tle1": "1 23439U 94085A   25075.92307379 -.00000011  00000+0  89055-3 0  9998",
    "tle2": "2 23439  64.8196 322.7136 0145669  90.8272 270.9345 11.27580637244347",
    "category": "amateur"
  },
  {
    "id": "24278U",
    "name": "JAS-2 (FO-29)",
    "tle1": "1 24278U 96046B   25075.72596789  .00000047  00000+0  84526-4 0  9999",
    "tle2": "2 24278  98.5845 340.7559 0349551 202.2532 156.3116 13.53240379411297",
    "category": "amateur"
  },
  {
    "id": "25397U",
    "name": "TECHSAT 1B (GO-32)",
    "tle1": "1 25397U 98043D   25075.90086415  .00000306  00000+0  15278-3 0  9996",
    "tle2": "2 25397  98.9631  53.2891 0002359  90.5981 269.5467 14.24273039386239",
    "category": "amateur"
  },
  {
    "id": "25544U",
    "name": "ISS (ZARYA)",
    "tle1": "1 25544U 98067A   25076.17748099  .00024772  00000+0  43866-3 0  9996",
    "tle2": "2 25544  51.6367  42.7442 0006413  30.4936 329.6424 15.50114121500895",
    "category": "amateur"
  },
  {
    "id": "26931U",
    "name": "PCSAT (NO-44)",
    "tle1": "1 26931U 01043C   25075.90850130  .00000604  00000+0  25727-3 0  9999",
    "tle2": "2 26931  67.0530 346.7499 0005662 267.0857  92.9597 14.31656978224986",
    "category": "amateur"
  },
  {
    "id": "27607U",
    "name": "SAUDISAT 1C (SO-50)",
    "tle1": "1 27607U 02058C   25075.49668486  .00003504  00000+0  45964-3 0  9999",
    "tle2": "2 27607  64.5525 103.0946 0046511 354.7869   5.2745 14.81139689196833",
    "category": "amateur"
  },
  {
    "id": "27844U",
    "name": "CUTE-1 (CO-55)",
    "tle1": "1 27844U 03031E   25076.00816906  .00000963  00000+0  43929-3 0  9999",
    "tle2": "2 27844  98.6796  85.3657 0010841  75.2617 284.9762 14.23874690126638",
    "category": "amateur"
  },
  {
    "id": "27848U",
    "name": "CUBESAT XI-IV (CO-57)",
    "tle1": "1 27848U 03031J   25075.98775611  .00000812  00000+0  37797-3 0  9995",
    "tle2": "2 27848  98.6822  85.4143 0010776  90.2620 269.9793 14.23226964126385",
    "category": "amateur"
  },
  {
    "id": "27939U",
    "name": "MOZHAYETS 4 (RS-22)",
    "tle1": "1 27939U 03042A   25076.19731612  .00003695  00000+0  59726-3 0  9993",
    "tle2": "2 27939  98.3190 243.6620 0010496 277.3143 190.7918 14.71947288148416",
    "category": "amateur"
  },
  {
    "id": "28895U",
    "name": "CUBESAT XI-V",
    "tle1": "1 28895U 05043F   25075.95592196  .00005201  00000+0  86559-3 0  9992",
    "tle2": "2 28895  98.2353 219.3408 0014512 211.6285 148.4050 14.70430276 34507",
    "category": "amateur"
  },
  {
    "id": "32785U",
    "name": "CUTE-1.7+APD II (CO-65)",
    "tle1": "1 32785U 08021C   25076.16834747  .00013759  00000+0  10268-2 0  9999",
    "tle2": "2 32785  97.7789  46.8294 0012510 127.0605 233.1765 15.02903085916463",
    "category": "amateur"
  },
  {
    "id": "32791U",
    "name": "SEEDS II (CO-66)",
    "tle1": "1 32791U 08021J   25075.89756103  .00027008  00000+0  14316-2 0  9994",
    "tle2": "2 32791  97.7226  54.2613 0007088  96.0555 264.1484 15.15333208917659",
    "category": "amateur"
  },
  {
    "id": "32953U",
    "name": "YUBILEINY (RS-30)",
    "tle1": "1 32953U 08025A   25076.14019893  .00000015  00000+0  37263-4 0  9992",
    "tle2": "2 32953  82.4979 279.7079 0018817 228.5410 131.4054 12.43160137763047",
    "category": "amateur"
  },
  {
    "id": "33499U",
    "name": "KKS-1 (KISEKI)",
    "tle1": "1 33499U 09002H   25076.22989161  .00004818  00000+0  62656-3 0  9995",
    "tle2": "2 33499  98.1242 347.1612 0007699 340.8210  19.2710 14.81131192868934",
    "category": "amateur"
  },
  {
    "id": "35932U",
    "name": "SWISSCUBE",
    "tle1": "1 35932U 09051B   25076.19762326  .00003361  00000+0  69552-3 0  9995",
    "tle2": "2 35932  98.4396 330.8309 0006591 182.8939 177.2223 14.60958375822431",
    "category": "amateur"
  },
  {
    "id": "35933U",
    "name": "BEESAT-1",
    "tle1": "1 35933U 09051C   25075.65981370  .00002713  00000+0  57008-3 0  9991",
    "tle2": "2 35933  98.4329 330.7850 0004746 195.7134 164.3919 14.60425179822371",
    "category": "amateur"
  },
  {
    "id": "35935U",
    "name": "ITUPSAT1",
    "tle1": "1 35935U 09051E   25076.22447651  .00002673  00000+0  57624-3 0  9995",
    "tle2": "2 35935  98.4422 330.9682 0006825 206.8800 153.2046 14.59252933822097",
    "category": "amateur"
  },
  {
    "id": "36122U",
    "name": "XIWANG-1 (HOPE-1)",
    "tle1": "1 36122U 09072B   25076.10610257 -.00000032  00000+0  31257-4 0  9991",
    "tle2": "2 36122 100.3392  33.7032 0007253 194.0929 165.9982 13.16420759732968",
    "category": "amateur"
  },
  {
    "id": "37224U",
    "name": "O/OREOS (USA 219)",
    "tle1": "1 37224U 10062C   25075.97052753  .00006953  00000+0  71177-3 0  9992",
    "tle2": "2 37224  71.9735  33.7452 0016693 223.7418 136.2429 14.90697515 48431",
    "category": "amateur"
  },
  {
    "id": "37839U",
    "name": "JUGNU",
    "tle1": "1 37839U 11058B   25075.68951542  .00000783  00000+0  27022-3 0  9997",
    "tle2": "2 37839  19.9594 207.4198 0018788  64.4010 325.2966 14.13540842694214",
    "category": "amateur"
  },
  {
    "id": "37841U",
    "name": "SRMSAT",
    "tle1": "1 37841U 11058D   25075.96488236  .00000698  00000+0  23587-3 0  9993",
    "tle2": "2 37841  19.9728 306.5800 0011739 213.9406 174.6483 14.11385202693142",
    "category": "amateur"
  },
  {
    "id": "39090U",
    "name": "STRAND-1",
    "tle1": "1 39090U 13009E   25076.06198110  .00001008  00000+0  35631-3 0  9999",
    "tle2": "2 39090  98.3818 262.9765 0009312 151.4506 208.7192 14.36695806631438",
    "category": "amateur"
  },
  {
    "id": "39417U",
    "name": "ZACUBE-1 (TSHEPISOSAT)",
    "tle1": "1 39417U 13066B   25075.84778646  .00012543  00000+0  11214-2 0  9994",
    "tle2": "2 39417  97.7722  33.4291 0044709 337.9860  21.9439 14.95249727612245",
    "category": "amateur"
  },
  {
    "id": "39430U",
    "name": "GOMX-1",
    "tle1": "1 39430U 13066Q   25076.13793746  .00004601  00000+0  72216-3 0  9996",
    "tle2": "2 39430  97.6953 299.9538 0135091 102.4926 259.1431 14.67074686603023",
    "category": "amateur"
  },
  {
    "id": "39440U",
    "name": "CUBEBUG-2 (LO-74)",
    "tle1": "1 39440U 13066AA  25075.82978871  .00009721  00000+0  10070-2 0  9993",
    "tle2": "2 39440  97.8426  21.0815 0065534  99.1389 261.7249 14.88633217608825",
    "category": "amateur"
  },
  {
    "id": "39444U",
    "name": "FUNCUBE-1 (AO-73)",
    "tle1": "1 39444U 13066AE  25075.84618160  .00019562  00000+0  15385-2 0  9999",
    "tle2": "2 39444  97.7607  37.6398 0039979 315.1848  44.6149 15.00248521610873",
    "category": "amateur"
  },
  {
    "id": "39446U",
    "name": "UWE-3",
    "tle1": "1 39446U 13066AG  25075.85712609  .00012842  00000+0  12465-2 0  9995",
    "tle2": "2 39446  97.8156  27.3608 0056095  41.6429 318.9040 14.91572590609273",
    "category": "amateur"
  },
  {
    "id": "40012U",
    "name": "UNISAT-6",
    "tle1": "1 40012U 14033C   25075.90880424  .00009610  00000+0  11276-2 0  9996",
    "tle2": "2 40012  97.7304 234.5567 0049543 132.6963 227.8440 14.84262005578230",
    "category": "amateur"
  },
  {
    "id": "40021U",
    "name": "DUCHIFAT-1",
    "tle1": "1 40021U 14033M   25075.95530248  .00039270  00000+0  16527-2 0  9996",
    "tle2": "2 40021  98.1012  83.2241 0007141 240.2719 119.7805 15.23246394585411",
    "category": "amateur"
  },
  {
    "id": "40025U",
    "name": "QB50P1",
    "tle1": "1 40025U 14033R   25075.89890946  .00019241  00000+0  12417-2 0  9997",
    "tle2": "2 40025  98.0772  53.9343 0010597 354.9686   5.1432 15.08277299583861",
    "category": "amateur"
  },
  {
    "id": "40908U",
    "name": "LILACSAT-2",
    "tle1": "1 40908U 15049K   25076.14324994  .00022965  00000+0  65448-3 0  9999",
    "tle2": "2 40908  97.5141  94.5708 0012029 102.4242 257.8349 15.36017915525257",
    "category": "amateur"
  },
  {
    "id": "40967U",
    "name": "FOX-1A (AO-85)",
    "tle1": "1 40967U 15058D   25075.96409200  .00010137  00000+0  87108-3 0  9992",
    "tle2": "2 40967  64.7749 256.0809 0173444 222.0245 136.7454 14.86918890 45480",
    "category": "amateur"
  },
  {
    "id": "41847U",
    "name": "CAS-2T & KS-1Q",
    "tle1": "1 41847U 16066G   25075.83075828  .00003291  00000+0  47394-3 0  9997",
    "tle2": "2 41847  98.4259 151.0235 0348450  74.9180 289.0282 14.43149387438799",
    "category": "amateur"
  }
]